[{"OBJECT_NAME":"YUNYAO-1 43","OBJECT_ID":"2025-059A","EPOCH":"2026-03-09T23:54:24.516576","MEAN_MOTION":15.10329109,"ECCENTRICITY":0.00157026,"INCLINATION":97.608,"RA_OF_ASC_NODE":250.9377,"ARG_OF_PERICENTER":132.1084,"MEAN_ANOMALY":228.1483,"EPHEMERIS_TYPE":0,"CLASSIFICATION_TYPE":"U","NORAD_CAT_ID":63344,"ELEMENT_SET_NO":999,"REV_AT_EPOCH":5332,"BSTAR":0.00032498885,"MEAN_MOTION_DOT":5.279e-5,"MEAN_MOTION_DDOT":0},{"OBJECT_NAME":"FENGYUN 1C DEB","OBJECT_ID":"1999-025CXF","EPOCH":"2026-03-07T13:12:42.532128","MEAN_MOTION":14.81371774,"ECCENTRICITY":0.0143567,"INCLINATION":98.862,"RA_OF_ASC_NODE":185.4298,"ARG_OF_PERICENTER":249.2966,"MEAN_ANOMALY":109.2805,"EPHEMERIS_TYPE":0,"CLASSIFICATION_TYPE":"U","NORAD_CAT_ID":32314,"ELEMENT_SET_NO":999,"REV_AT_EPOCH":98685,"BSTAR":0.0017862,"MEAN_MOTION_DOT":0.00016648,"MEAN_MOTION_DDOT":0}]
